*******************************************************************************
Ephemeris / WWW_USER Mon Mar 24 07:26:11 2025 Pasadena, USA      / Horizons    
*******************************************************************************
Target body name: (2018 PN20)                     {source: JPL#3}
Center body name: Earth (399)                     {source: DE441}
Center-site name: Mauna Kea
*******************************************************************************
Start time      : A.D. 2018-Sep-13 04:36:00.0000 UT      
Stop  time      : A.D. 2018-Sep-13 15:59:00.0000 UT      
Step-size       : 1 minutes
*******************************************************************************
Target pole/equ : undefined
Target radii    : undefined                                                    
Center geodetic : 204.5278, 19.8260847, 4.21024   {E-lon(deg),Lat(deg),Alt(km)}
Center cylindric: 204.5278, 6006.35451, 2151.0229 {E-lon(deg),Dxy(km),Dz(km)}
Center pole/equ : ITRF93                          {East-longitude positive}
Center radii    : 6378.137, 6378.137, 6356.752 km {Equator_a, b, pole_c}       
Target primary  : Sun
Vis. interferer : MOON (R_eq= 1737.400) km        {source: DE441}
Rel. light bend : Sun                             {source: DE441}
Rel. lght bnd GM: 1.3271E+11 km^3/s^2                                          
Small-body perts: Yes                             {source: SB441-N16}
Atmos refraction: NO (AIRLESS)
RA format       : HMS
Time format     : CAL 
Calendar mode   : Mixed Julian/Gregorian
RTS-only print  : NO       
EOP file        : eop.250321.p250617                                           
EOP coverage    : DATA-BASED 1962-JAN-20 TO 2025-MAR-21. PREDICTS-> 2025-JUN-16
Units conversion: 1 au= 149597870.700 km, c= 299792.458 km/s, 1 day= 86400.0 s 
Table cut-offs 1: Elevation (-90.0deg=NO ),Airmass (>38.000=NO), Daylight (YES)
Table cut-offs 2: Solar elongation (  0.0,180.0=NO ),Local Hour Angle( 0.0=NO )
Table cut-offs 3: RA/DEC angular rate (     0.0=NO )                           
*******************************************************************************
Initial IAU76/J2000 heliocentric ecliptic osculating elements (au, days, deg.):
  EPOCH=  2458343.5 ! 2018-Aug-13.00 (TDB)         Residual RMS= .1225         
   EC= .3775096637251725   QR= 1.051585063958075   TP= 2458346.3972912203      
   OM= 142.6884316149991   W=  180.4368328240348   IN= 18.91630320954361       
  Equivalent ICRF heliocentric cartesian coordinates (au, au/d):
   X= 8.077039416640637E-01  Y=-6.245728834467501E-01  Z=-2.534674905132982E-01
  VX= 1.177737749455786E-02 VY= 1.576958466977457E-02 VZ=-1.142216194306418E-04
Asteroid physical parameters (km, seconds, rotational period in hours):        
   GM= n.a.                RAD= n.a.               ROTPER= n.a.                
   H= 25.1                 G= .150                 B-V= n.a.                   
                           ALBEDO= n.a.            STYP= n.a.                  
*******************************************************************************
 Date__(UT)__HR:MN     R.A._________(ICRF)_________DEC
******************************************************
$$SOE
 2018-Sep-13 08:42     03 13 10.658932 -55 22 22.35611
 2018-Sep-13 08:43     03 13 10.716377 -55 22 22.47061
 2018-Sep-13 08:44     03 13 10.773722 -55 22 22.58498
 2018-Sep-13 08:45     03 13 10.830965 -55 22 22.69923
 2018-Sep-13 08:46     03 13 10.888108 -55 22 22.81334
 2018-Sep-13 08:47     03 13 10.945151 -55 22 22.92732
 2018-Sep-13 08:48     03 13 11.002092 -55 22 23.04116
 2018-Sep-13 08:49     03 13 11.058934 -55 22 23.15487
 2018-Sep-13 08:50     03 13 11.115674 -55 22 23.26842
 2018-Sep-13 08:51     03 13 11.172315 -55 22 23.38183
 2018-Sep-13 08:52     03 13 11.228855 -55 22 23.49510
 2018-Sep-13 08:53     03 13 11.285295 -55 22 23.60820
 2018-Sep-13 08:54     03 13 11.341635 -55 22 23.72116
 2018-Sep-13 08:55     03 13 11.397875 -55 22 23.83395
 2018-Sep-13 08:56     03 13 11.454016 -55 22 23.94659
 2018-Sep-13 08:57     03 13 11.510056 -55 22 24.05906
 2018-Sep-13 08:58     03 13 11.565997 -55 22 24.17137
 2018-Sep-13 08:59     03 13 11.621838 -55 22 24.28350
 2018-Sep-13 09:00     03 13 11.677580 -55 22 24.39547
 2018-Sep-13 09:01     03 13 11.733222 -55 22 24.50725
 2018-Sep-13 09:02     03 13 11.788765 -55 22 24.61886
 2018-Sep-13 09:03     03 13 11.844209 -55 22 24.73029
 2018-Sep-13 09:04     03 13 11.899554 -55 22 24.84154
 2018-Sep-13 09:05     03 13 11.954800 -55 22 24.95260
 2018-Sep-13 09:06     03 13 12.009947 -55 22 25.06346
 2018-Sep-13 09:07     03 13 12.064995 -55 22 25.17414
 2018-Sep-13 09:08     03 13 12.119944 -55 22 25.28462
 2018-Sep-13 09:09     03 13 12.174796 -55 22 25.39491
 2018-Sep-13 09:10     03 13 12.229548 -55 22 25.50499
 2018-Sep-13 09:11     03 13 12.284203 -55 22 25.61487
 2018-Sep-13 09:12     03 13 12.338759 -55 22 25.72454
 2018-Sep-13 09:13     03 13 12.393218 -55 22 25.83401
 2018-Sep-13 09:14     03 13 12.447578 -55 22 25.94326
 2018-Sep-13 09:15     03 13 12.501841 -55 22 26.05229
 2018-Sep-13 09:16     03 13 12.556006 -55 22 26.16111
 2018-Sep-13 09:17     03 13 12.610073 -55 22 26.26971
 2018-Sep-13 09:18     03 13 12.664043 -55 22 26.37809
 2018-Sep-13 09:19     03 13 12.717916 -55 22 26.48623
 2018-Sep-13 09:20     03 13 12.771692 -55 22 26.59415
 2018-Sep-13 09:21     03 13 12.825371 -55 22 26.70184
 2018-Sep-13 09:22     03 13 12.878953 -55 22 26.80930
 2018-Sep-13 09:23     03 13 12.932438 -55 22 26.91651
 2018-Sep-13 09:24     03 13 12.985827 -55 22 27.02349
 2018-Sep-13 09:25     03 13 13.039119 -55 22 27.13022
 2018-Sep-13 09:26     03 13 13.092315 -55 22 27.23671
 2018-Sep-13 09:27     03 13 13.145415 -55 22 27.34295
 2018-Sep-13 09:28     03 13 13.198419 -55 22 27.44894
 2018-Sep-13 09:29     03 13 13.251327 -55 22 27.55467
 2018-Sep-13 09:30     03 13 13.304140 -55 22 27.66015
 2018-Sep-13 09:31     03 13 13.356857 -55 22 27.76537
 2018-Sep-13 09:32     03 13 13.409479 -55 22 27.87033
 2018-Sep-13 09:33     03 13 13.462005 -55 22 27.97502
 2018-Sep-13 09:34     03 13 13.514437 -55 22 28.07944
 2018-Sep-13 09:35     03 13 13.566773 -55 22 28.18360
 2018-Sep-13 09:36     03 13 13.619015 -55 22 28.28748
 2018-Sep-13 09:37     03 13 13.671163 -55 22 28.39108
 2018-Sep-13 09:38     03 13 13.723216 -55 22 28.49441
 2018-Sep-13 09:39     03 13 13.775174 -55 22 28.59746
 2018-Sep-13 09:40     03 13 13.827039 -55 22 28.70022
 2018-Sep-13 09:41     03 13 13.878810 -55 22 28.80270
 2018-Sep-13 09:42     03 13 13.930487 -55 22 28.90488
 2018-Sep-13 09:43     03 13 13.982071 -55 22 29.00678
 2018-Sep-13 09:44     03 13 14.033561 -55 22 29.10838
 2018-Sep-13 09:45     03 13 14.084958 -55 22 29.20968
 2018-Sep-13 09:46     03 13 14.136262 -55 22 29.31068
 2018-Sep-13 09:47     03 13 14.187474 -55 22 29.41138
 2018-Sep-13 09:48     03 13 14.238593 -55 22 29.51178
 2018-Sep-13 09:49     03 13 14.289619 -55 22 29.61187
 2018-Sep-13 09:50  r  03 13 14.340553 -55 22 29.71164
 2018-Sep-13 09:51     03 13 14.391395 -55 22 29.81111
 2018-Sep-13 09:52     03 13 14.442145 -55 22 29.91025
 2018-Sep-13 09:53     03 13 14.492803 -55 22 30.00908
 2018-Sep-13 09:54     03 13 14.543370 -55 22 30.10759
 2018-Sep-13 09:55     03 13 14.593846 -55 22 30.20578
 2018-Sep-13 09:56     03 13 14.644231 -55 22 30.30364
 2018-Sep-13 09:57     03 13 14.694524 -55 22 30.40117
 2018-Sep-13 09:58     03 13 14.744727 -55 22 30.49836
 2018-Sep-13 09:59     03 13 14.794840 -55 22 30.59523
 2018-Sep-13 10:00     03 13 14.844862 -55 22 30.69176
 2018-Sep-13 10:01     03 13 14.894794 -55 22 30.78795
 2018-Sep-13 10:02     03 13 14.944636 -55 22 30.88379
 2018-Sep-13 10:03     03 13 14.994389 -55 22 30.97930
 2018-Sep-13 10:04     03 13 15.044052 -55 22 31.07445
 2018-Sep-13 10:05     03 13 15.093626 -55 22 31.16926
 2018-Sep-13 10:06     03 13 15.143111 -55 22 31.26371
 2018-Sep-13 10:07     03 13 15.192507 -55 22 31.35781
 2018-Sep-13 10:08     03 13 15.241814 -55 22 31.45155
 2018-Sep-13 10:09     03 13 15.291033 -55 22 31.54494
 2018-Sep-13 10:10     03 13 15.340163 -55 22 31.63796
 2018-Sep-13 10:11     03 13 15.389206 -55 22 31.73062
 2018-Sep-13 10:12     03 13 15.438161 -55 22 31.82291
 2018-Sep-13 10:13     03 13 15.487029 -55 22 31.91483
 2018-Sep-13 10:14     03 13 15.535809 -55 22 32.00637
 2018-Sep-13 10:15     03 13 15.584502 -55 22 32.09755
 2018-Sep-13 10:16     03 13 15.633109 -55 22 32.18834
 2018-Sep-13 10:17     03 13 15.681628 -55 22 32.27876
 2018-Sep-13 10:18     03 13 15.730062 -55 22 32.36879
 2018-Sep-13 10:19     03 13 15.778409 -55 22 32.45844
 2018-Sep-13 10:20     03 13 15.826670 -55 22 32.54771
 2018-Sep-13 10:21     03 13 15.874846 -55 22 32.63658
 2018-Sep-13 10:22     03 13 15.922936 -55 22 32.72506
 2018-Sep-13 10:23     03 13 15.970941 -55 22 32.81315
 2018-Sep-13 10:24     03 13 16.018861 -55 22 32.90084
 2018-Sep-13 10:25     03 13 16.066696 -55 22 32.98814
 2018-Sep-13 10:26     03 13 16.114447 -55 22 33.07503
 2018-Sep-13 10:27     03 13 16.162114 -55 22 33.16151
 2018-Sep-13 10:28     03 13 16.209696 -55 22 33.24759
 2018-Sep-13 10:29     03 13 16.257195 -55 22 33.33327
 2018-Sep-13 10:30     03 13 16.304611 -55 22 33.41853
 2018-Sep-13 10:31     03 13 16.351943 -55 22 33.50338
 2018-Sep-13 10:32     03 13 16.399192 -55 22 33.58781
 2018-Sep-13 10:33     03 13 16.446358 -55 22 33.67182
 2018-Sep-13 10:34     03 13 16.493442 -55 22 33.75542
 2018-Sep-13 10:35     03 13 16.540444 -55 22 33.83859
 2018-Sep-13 10:36     03 13 16.587364 -55 22 33.92133
 2018-Sep-13 10:37     03 13 16.634202 -55 22 34.00365
 2018-Sep-13 10:38     03 13 16.680959 -55 22 34.08554
 2018-Sep-13 10:39     03 13 16.727634 -55 22 34.16700
 2018-Sep-13 10:40     03 13 16.774229 -55 22 34.24802
 2018-Sep-13 10:41     03 13 16.820743 -55 22 34.32861
 2018-Sep-13 10:42     03 13 16.867176 -55 22 34.40875
 2018-Sep-13 10:43     03 13 16.913529 -55 22 34.48846
 2018-Sep-13 10:44     03 13 16.959803 -55 22 34.56772
